[{"OBJECT_NAME":"DONGPO 08","OBJECT_ID":"2022-167E","EPOCH":"2026-03-09T22:57:52.742880","MEAN_MOTION":15.31542505,"ECCENTRICITY":0.00092155,"INCLINATION":97.6764,"RA_OF_ASC_NODE":233.3854,"ARG_OF_PERICENTER":153.9158,"MEAN_ANOMALY":206.2548,"EPHEMERIS_TYPE":0,"CLASSIFICATION_TYPE":"U","NORAD_CAT_ID":54686,"ELEMENT_SET_NO":999,"REV_AT_EPOCH":18012,"BSTAR":0.0004734784,"MEAN_MOTION_DOT":0.0001437,"MEAN_MOTION_DDOT":0},{"OBJECT_NAME":"STARLINK-34182","OBJECT_ID":"2025-101V","EPOCH":"2026-03-09T04:16:46.688160","MEAN_MOTION":15.27635276,"ECCENTRICITY":0.0002042,"INCLINATION":43.0053,"RA_OF_ASC_NODE":357.6816,"ARG_OF_PERICENTER":294.4039,"MEAN_ANOMALY":65.66,"EPHEMERIS_TYPE":0,"CLASSIFICATION_TYPE":"U","NORAD_CAT_ID":64013,"ELEMENT_SET_NO":999,"REV_AT_EPOCH":4701,"BSTAR":0.0021295791,"MEAN_MOTION_DOT":0.00058909,"MEAN_MOTION_DDOT":0}]
